[{"OBJECT_NAME":"ONEWEB-0101","OBJECT_ID":"2021-025H","EPOCH":"2025-12-28T01:10:05.182176","MEAN_MOTION":13.13468759,"ECCENTRICITY":0.00016459,"INCLINATION":87.8978,"RA_OF_ASC_NODE":354.2451,"ARG_OF_PERICENTER":85.577,"MEAN_ANOMALY":274.5548,"EPHEMERIS_TYPE":0,"CLASSIFICATION_TYPE":"U","NORAD_CAT_ID":48049,"ELEMENT_SET_NO":999,"REV_AT_EPOCH":23103,"BSTAR":0.00092655851,"MEAN_MOTION_DOT":3.51e-6,"MEAN_MOTION_DDOT":0},{"OBJECT_NAME":"ONEWEB-0113","OBJECT_ID":"2021-025J","EPOCH":"2025-12-28T01:24:55.944576","MEAN_MOTION":13.13985856,"ECCENTRICITY":0.00019893,"INCLINATION":87.8984,"RA_OF_ASC_NODE":354.1701,"ARG_OF_PERICENTER":90.0728,"MEAN_ANOMALY":270.063,"EPHEMERIS_TYPE":0,"CLASSIFICATION_TYPE":"U","NORAD_CAT_ID":48050,"ELEMENT_SET_NO":999,"REV_AT_EPOCH":23113,"BSTAR":0.00076178622,"MEAN_MOTION_DOT":2.93e-6,"MEAN_MOTION_DDOT":0},{"OBJECT_NAME":"ONEWEB-0112","OBJECT_ID":"2021-025K","EPOCH":"2025-12-28T05:50:24.290880","MEAN_MOTION":13.13468729,"ECCENTRICITY":0.00017482,"INCLINATION":87.899,"RA_OF_ASC_NODE":354.1722,"ARG_OF_PERICENTER":89.9332,"MEAN_ANOMALY":270.1997,"EPHEMERIS_TYPE":0,"CLASSIFICATION_TYPE":"U","NORAD_CAT_ID":48051,"ELEMENT_SET_NO":999,"REV_AT_EPOCH":23115,"BSTAR":-0.00098488738,"MEAN_MOTION_DOT":-3.47e-6,"MEAN_MOTION_DDOT":0},{"OBJECT_NAME":"ONEWEB-0156","OBJECT_ID":"2021-025L","EPOCH":"2025-12-28T00:33:32.776128","MEAN_MOTION":13.13460987,"ECCENTRICITY":0.00024701,"INCLINATION":87.8962,"RA_OF_ASC_NODE":354.2268,"ARG_OF_PERICENTER":99.9556,"MEAN_ANOMALY":260.1852,"EPHEMERIS_TYPE":0,"CLASSIFICATION_TYPE":"U","NORAD_CAT_ID":48052,"ELEMENT_SET_NO":999,"REV_AT_EPOCH":23110,"BSTAR":-0.0054421868,"MEAN_MOTION_DOT":-1.974e-5,"MEAN_MOTION_DDOT":0},{"OBJECT_NAME":"ONEWEB-0161","OBJECT_ID":"2021-025M","EPOCH":"2025-12-27T23:56:57.423840","MEAN_MOTION":13.13468435,"ECCENTRICITY":0.00016104,"INCLINATION":87.8981,"RA_OF_ASC_NODE":354.2464,"ARG_OF_PERICENTER":91.4644,"MEAN_ANOMALY":268.667,"EPHEMERIS_TYPE":0,"CLASSIFICATION_TYPE":"U","NORAD_CAT_ID":48053,"ELEMENT_SET_NO":999,"REV_AT_EPOCH":23103,"BSTAR":-8.5688691e-5,"MEAN_MOTION_DOT":-1.9e-7,"MEAN_MOTION_DDOT":0},{"OBJECT_NAME":"ONEWEB-0158","OBJECT_ID":"2021-025N","EPOCH":"2025-12-28T06:17:14.101728","MEAN_MOTION":13.134692,"ECCENTRICITY":0.00019692,"INCLINATION":87.8987,"RA_OF_ASC_NODE":354.1792,"ARG_OF_PERICENTER":79.4492,"MEAN_ANOMALY":280.6859,"EPHEMERIS_TYPE":0,"CLASSIFICATION_TYPE":"U","NORAD_CAT_ID":48054,"ELEMENT_SET_NO":999,"REV_AT_EPOCH":23119,"BSTAR":0.00020523571,"MEAN_MOTION_DOT":8.8e-7,"MEAN_MOTION_DDOT":0},{"OBJECT_NAME":"ONEWEB-0157","OBJECT_ID":"2021-025P","EPOCH":"2025-12-28T05:04:06.590496","MEAN_MOTION":13.13468305,"ECCENTRICITY":0.00013743,"INCLINATION":87.8986,"RA_OF_ASC_NODE":354.195,"ARG_OF_PERICENTER":92.5478,"MEAN_ANOMALY":267.5809,"EPHEMERIS_TYPE":0,"CLASSIFICATION_TYPE":"U","NORAD_CAT_ID":48055,"ELEMENT_SET_NO":999,"REV_AT_EPOCH":23112,"BSTAR":0.00083697847,"MEAN_MOTION_DOT":3.18e-6,"MEAN_MOTION_DDOT":0},{"OBJECT_NAME":"ONEWEB-0162","OBJECT_ID":"2021-025Q","EPOCH":"2025-12-28T00:50:23.563680","MEAN_MOTION":13.13469471,"ECCENTRICITY":0.00018147,"INCLINATION":87.8987,"RA_OF_ASC_NODE":354.2327,"ARG_OF_PERICENTER":93.189,"MEAN_ANOMALY":266.9447,"EPHEMERIS_TYPE":0,"CLASSIFICATION_TYPE":"U","NORAD_CAT_ID":48056,"ELEMENT_SET_NO":999,"REV_AT_EPOCH":23107,"BSTAR":0.00033339536,"MEAN_MOTION_DOT":1.34e-6,"MEAN_MOTION_DDOT":0},{"OBJECT_NAME":"ONEWEB-0155","OBJECT_ID":"2021-025R","EPOCH":"2025-12-28T01:00:20.589408","MEAN_MOTION":13.13469587,"ECCENTRICITY":0.00015759,"INCLINATION":87.8989,"RA_OF_ASC_NODE":354.2357,"ARG_OF_PERICENTER":84.4302,"MEAN_ANOMALY":275.7007,"EPHEMERIS_TYPE":0,"CLASSIFICATION_TYPE":"U","NORAD_CAT_ID":48057,"ELEMENT_SET_NO":999,"REV_AT_EPOCH":23121,"BSTAR":0.00059842905,"MEAN_MOTION_DOT":2.31e-6,"MEAN_MOTION_DDOT":0},{"OBJECT_NAME":"ONEWEB-0149","OBJECT_ID":"2021-025S","EPOCH":"2025-12-28T05:11:24.882144","MEAN_MOTION":13.13467732,"ECCENTRICITY":0.00018483,"INCLINATION":87.8986,"RA_OF_ASC_NODE":354.1947,"ARG_OF_PERICENTER":94.5492,"MEAN_ANOMALY":265.5848,"EPHEMERIS_TYPE":0,"CLASSIFICATION_TYPE":"U","NORAD_CAT_ID":48058,"ELEMENT_SET_NO":999,"REV_AT_EPOCH":23104,"BSTAR":0.00056791806,"MEAN_MOTION_DOT":2.2e-6,"MEAN_MOTION_DDOT":0},{"OBJECT_NAME":"ONEWEB-0148","OBJECT_ID":"2021-025T","EPOCH":"2025-12-28T06:07:28.714944","MEAN_MOTION":13.13469335,"ECCENTRICITY":0.00018311,"INCLINATION":87.8976,"RA_OF_ASC_NODE":354.2052,"ARG_OF_PERICENTER":106.6967,"MEAN_ANOMALY":253.4363,"EPHEMERIS_TYPE":0,"CLASSIFICATION_TYPE":"U","NORAD_CAT_ID":48059,"ELEMENT_SET_NO":999,"REV_AT_EPOCH":23117,"BSTAR":-0.00040054795,"MEAN_MOTION_DOT":-1.34e-6,"MEAN_MOTION_DDOT":0},{"OBJECT_NAME":"ONEWEB-0160","OBJECT_ID":"2021-025U","EPOCH":"2025-12-28T01:02:46.880160","MEAN_MOTION":13.1346861,"ECCENTRICITY":0.00024721,"INCLINATION":87.8978,"RA_OF_ASC_NODE":354.245,"ARG_OF_PERICENTER":79.568,"MEAN_ANOMALY":280.5728,"EPHEMERIS_TYPE":0,"CLASSIFICATION_TYPE":"U","NORAD_CAT_ID":48060,"ELEMENT_SET_NO":999,"REV_AT_EPOCH":23109,"BSTAR":0.0007931968,"MEAN_MOTION_DOT":3.02e-6,"MEAN_MOTION_DDOT":0},{"OBJECT_NAME":"ONEWEB-0163","OBJECT_ID":"2021-025V","EPOCH":"2025-12-28T06:09:56.017440","MEAN_MOTION":13.13470394,"ECCENTRICITY":0.00014643,"INCLINATION":87.8985,"RA_OF_ASC_NODE":354.1897,"ARG_OF_PERICENTER":88.0964,"MEAN_ANOMALY":272.0333,"EPHEMERIS_TYPE":0,"CLASSIFICATION_TYPE":"U","NORAD_CAT_ID":48061,"ELEMENT_SET_NO":999,"REV_AT_EPOCH":23124,"BSTAR":-0.00026162405,"MEAN_MOTION_DOT":-8.3e-7,"MEAN_MOTION_DDOT":0},{"OBJECT_NAME":"ONEWEB-0159","OBJECT_ID":"2021-025W","EPOCH":"2025-12-28T05:57:43.386912","MEAN_MOTION":13.13468876,"ECCENTRICITY":0.00015991,"INCLINATION":87.8989,"RA_OF_ASC_NODE":354.1759,"ARG_OF_PERICENTER":93.2837,"MEAN_ANOMALY":266.8475,"EPHEMERIS_TYPE":0,"CLASSIFICATION_TYPE":"U","NORAD_CAT_ID":48062,"ELEMENT_SET_NO":999,"REV_AT_EPOCH":23116,"BSTAR":-0.00073072608,"MEAN_MOTION_DOT":-2.54e-6,"MEAN_MOTION_DDOT":0},{"OBJECT_NAME":"ONEWEB-0164","OBJECT_ID":"2021-025X","EPOCH":"2025-12-28T00:01:50.228256","MEAN_MOTION":13.13469843,"ECCENTRICITY":0.00018171,"INCLINATION":87.8989,"RA_OF_ASC_NODE":354.2317,"ARG_OF_PERICENTER":85.1665,"MEAN_ANOMALY":274.9671,"EPHEMERIS_TYPE":0,"CLASSIFICATION_TYPE":"U","NORAD_CAT_ID":48063,"ELEMENT_SET_NO":999,"REV_AT_EPOCH":23111,"BSTAR":-0.00038089218,"MEAN_MOTION_DOT":-1.26e-6,"MEAN_MOTION_DDOT":0},{"OBJECT_NAME":"ONEWEB-0167","OBJECT_ID":"2021-025Y","EPOCH":"2025-12-28T06:11:09.623328","MEAN_MOTION":13.13470843,"ECCENTRICITY":0.00012465,"INCLINATION":87.8976,"RA_OF_ASC_NODE":354.2067,"ARG_OF_PERICENTER":66.0904,"MEAN_ANOMALY":294.0356,"EPHEMERIS_TYPE":0,"CLASSIFICATION_TYPE":"U","NORAD_CAT_ID":48064,"ELEMENT_SET_NO":999,"REV_AT_EPOCH":23113,"BSTAR":-0.00028472485,"MEAN_MOTION_DOT":-9.1e-7,"MEAN_MOTION_DDOT":0},{"OBJECT_NAME":"ONEWEB-0166","OBJECT_ID":"2021-025Z","EPOCH":"2025-12-28T01:14:57.962400","MEAN_MOTION":13.13468245,"ECCENTRICITY":0.00017003,"INCLINATION":87.8988,"RA_OF_ASC_NODE":354.2053,"ARG_OF_PERICENTER":93.6231,"MEAN_ANOMALY":266.5093,"EPHEMERIS_TYPE":0,"CLASSIFICATION_TYPE":"U","NORAD_CAT_ID":48065,"ELEMENT_SET_NO":999,"REV_AT_EPOCH":23118,"BSTAR":0.0006416629,"MEAN_MOTION_DOT":2.47e-6,"MEAN_MOTION_DDOT":0},{"OBJECT_NAME":"ONEWEB-0151","OBJECT_ID":"2021-025AA","EPOCH":"2025-12-28T01:17:24.384480","MEAN_MOTION":13.13468039,"ECCENTRICITY":0.00016898,"INCLINATION":87.8987,"RA_OF_ASC_NODE":354.2313,"ARG_OF_PERICENTER":84.5365,"MEAN_ANOMALY":275.5957,"EPHEMERIS_TYPE":0,"CLASSIFICATION_TYPE":"U","NORAD_CAT_ID":48066,"ELEMENT_SET_NO":999,"REV_AT_EPOCH":23112,"BSTAR":0.00099104981,"MEAN_MOTION_DOT":3.75e-6,"MEAN_MOTION_DDOT":0},{"OBJECT_NAME":"ONEWEB-0170","OBJECT_ID":"2021-025AB","EPOCH":"2025-12-28T05:08:58.641504","MEAN_MOTION":13.13468487,"ECCENTRICITY":0.00019806,"INCLINATION":87.8981,"RA_OF_ASC_NODE":354.2036,"ARG_OF_PERICENTER":74.2128,"MEAN_ANOMALY":285.922,"EPHEMERIS_TYPE":0,"CLASSIFICATION_TYPE":"U","NORAD_CAT_ID":48067,"ELEMENT_SET_NO":999,"REV_AT_EPOCH":23110,"BSTAR":0.00091992488,"MEAN_MOTION_DOT":3.49e-6,"MEAN_MOTION_DDOT":0},{"OBJECT_NAME":"ONEWEB-0168","OBJECT_ID":"2021-025AC","EPOCH":"2025-12-28T01:07:39.197280","MEAN_MOTION":13.13468696,"ECCENTRICITY":0.00015903,"INCLINATION":87.899,"RA_OF_ASC_NODE":354.2232,"ARG_OF_PERICENTER":90.0221,"MEAN_ANOMALY":270.109,"EPHEMERIS_TYPE":0,"CLASSIFICATION_TYPE":"U","NORAD_CAT_ID":48068,"ELEMENT_SET_NO":999,"REV_AT_EPOCH":23109,"BSTAR":0.0008867306,"MEAN_MOTION_DOT":3.37e-6,"MEAN_MOTION_DDOT":0},{"OBJECT_NAME":"ONEWEB-0173","OBJECT_ID":"2021-025AD","EPOCH":"2025-12-28T00:55:27.791904","MEAN_MOTION":13.13468883,"ECCENTRICITY":0.0001349,"INCLINATION":87.8989,"RA_OF_ASC_NODE":354.2325,"ARG_OF_PERICENTER":85.8763,"MEAN_ANOMALY":274.252,"EPHEMERIS_TYPE":0,"CLASSIFICATION_TYPE":"U","NORAD_CAT_ID":48069,"ELEMENT_SET_NO":999,"REV_AT_EPOCH":23133,"BSTAR":0.00054648931,"MEAN_MOTION_DOT":2.12e-6,"MEAN_MOTION_DDOT":0},{"OBJECT_NAME":"ONEWEB-0171","OBJECT_ID":"2021-025AE","EPOCH":"2025-12-28T05:28:28.810272","MEAN_MOTION":13.13468786,"ECCENTRICITY":0.00016923,"INCLINATION":87.8976,"RA_OF_ASC_NODE":354.2149,"ARG_OF_PERICENTER":83.5936,"MEAN_ANOMALY":276.5386,"EPHEMERIS_TYPE":0,"CLASSIFICATION_TYPE":"U","NORAD_CAT_ID":48070,"ELEMENT_SET_NO":999,"REV_AT_EPOCH":23117,"BSTAR":-0.0002211808,"MEAN_MOTION_DOT":-6.8e-7,"MEAN_MOTION_DDOT":0},{"OBJECT_NAME":"ONEWEB-0172","OBJECT_ID":"2021-025AF","EPOCH":"2025-12-28T06:48:55.503072","MEAN_MOTION":13.13468372,"ECCENTRICITY":0.00016077,"INCLINATION":87.8989,"RA_OF_ASC_NODE":354.188,"ARG_OF_PERICENTER":83.8823,"MEAN_ANOMALY":276.2489,"EPHEMERIS_TYPE":0,"CLASSIFICATION_TYPE":"U","NORAD_CAT_ID":48071,"ELEMENT_SET_NO":999,"REV_AT_EPOCH":23207,"BSTAR":0.00080348357,"MEAN_MOTION_DOT":3.06e-6,"MEAN_MOTION_DDOT":0}]
